{
  "type": "FeatureCollection",
  "features": [
    {
      "type": "Feature",
      "properties": {
        "norad_id": 37836,
        "name": "EUTELSAT 16A",
        "group": "eutelsat",
        "lat": -0.012108807270337855,
        "lon": -9.96101473240454,
        "alt_km": 35784.7143511777,
        "timestamp": "2025-12-10T16:57:11.305934+00:00",
        "meta_object_name": "EUTELSAT 16A",
        "meta_object_id": "2011-057A",
        "meta_epoch": "2025-12-10T06:13:38.752320",
        "meta_mean_motion": 1.00271332,
        "meta_eccentricity": 0.0005972,
        "meta_inclination": 0.0586,
        "meta_ra_of_asc_node": 3.873,
        "meta_arg_of_pericenter": 259.4476,
        "meta_mean_anomaly": 285.3275,
        "meta_ephemeris_type": 0,
        "meta_classification_type": "U",
        "meta_norad_cat_id": 37836,
        "meta_element_set_no": 999,
        "meta_rev_at_epoch": 543,
        "meta_bstar": 0,
        "meta_mean_motion_dot": 1.07e-06,
        "meta_mean_motion_ddot": 0,
        "tle_line1": "1 37836U 11057A   25344.25947630  .00000107  00000+0  00000+0 0  9991",
        "tle_line2": "2 37836   0.0586   3.8730 0005972 259.4476 285.3275  1.00271332  5432"
      },
      "geometry": {
        "type": "Point",
        "coordinates": [
          -9.96101473240454,
          -0.012108807270337855
        ]
      }
    },
    {
      "type": "Feature",
      "properties": {
        "norad_id": 38992,
        "name": "EUTELSAT 21B",
        "group": "eutelsat",
        "lat": -0.0018009258853554542,
        "lon": -4.395511439181597,
        "alt_km": 35785.487241329334,
        "timestamp": "2025-12-10T16:57:11.305946+00:00",
        "meta_object_name": "EUTELSAT 21B",
        "meta_object_id": "2012-062B",
        "meta_epoch": "2025-12-10T06:13:38.752320",
        "meta_mean_motion": 1.00271386,
        "meta_eccentricity": 0.000329,
        "meta_inclination": 0.0664,
        "meta_ra_of_asc_node": 0.5578,
        "meta_arg_of_pericenter": 267.7897,
        "meta_mean_anomaly": 285.8968,
        "meta_ephemeris_type": 0,
        "meta_classification_type": "U",
        "meta_norad_cat_id": 38992,
        "meta_element_set_no": 999,
        "meta_rev_at_epoch": 4793,
        "meta_bstar": 0,
        "meta_mean_motion_dot": 1.33e-06,
        "meta_mean_motion_ddot": 0,
        "tle_line1": "1 38992U 12062B   25344.25947630  .00000133  00000+0  00000+0 0  9991",
        "tle_line2": "2 38992   0.0664   0.5578 0003290 267.7897 285.8968  1.00271386 47931"
      },
      "geometry": {
        "type": "Point",
        "coordinates": [
          -4.395511439181597,
          -0.0018009258853554542
        ]
      }
    },
    {
      "type": "Feature",
      "properties": {
        "norad_id": 39020,
        "name": "EUTELSAT 70B",
        "group": "eutelsat",
        "lat": 0.07428701169029558,
        "lon": 44.50830711415456,
        "alt_km": 35803.41674097911,
        "timestamp": "2025-12-10T16:57:11.305957+00:00",
        "meta_object_name": "EUTELSAT 70B",
        "meta_object_id": "2012-069A",
        "meta_epoch": "2025-12-10T08:41:38.596128",
        "meta_mean_motion": 1.00271755,
        "meta_eccentricity": 0.0004358,
        "meta_inclination": 0.0637,
        "meta_ra_of_asc_node": 340.391,
        "meta_arg_of_pericenter": 263.8652,
        "meta_mean_anomaly": 36.0131,
        "meta_ephemeris_type": 0,
        "meta_classification_type": "U",
        "meta_norad_cat_id": 39020,
        "meta_element_set_no": 999,
        "meta_rev_at_epoch": 4761,
        "meta_bstar": 0,
        "meta_mean_motion_dot": -4e-07,
        "meta_mean_motion_ddot": 0,
        "tle_line1": "1 39020U 12069A   25344.36225227 -.00000040  00000+0  00000+0 0  9992",
        "tle_line2": "2 39020   0.0637 340.3910 0004358 263.8652  36.0131  1.00271755 47614"
      },
      "geometry": {
        "type": "Point",
        "coordinates": [
          44.50830711415456,
          0.07428701169029558
        ]
      }
    },
    {
      "type": "Feature",
      "properties": {
        "norad_id": 39122,
        "name": "EUTELSAT 117 WEST A",
        "group": "eutelsat",
        "lat": -0.021865739262620986,
        "lon": -142.85797448842106,
        "alt_km": 35777.16620179306,
        "timestamp": "2025-12-10T16:57:11.305969+00:00",
        "meta_object_name": "EUTELSAT 117 WEST A",
        "meta_object_id": "2013-012A",
        "meta_epoch": "2025-12-10T08:50:38.825088",
        "meta_mean_motion": 1.00270995,
        "meta_eccentricity": 0.0003028,
        "meta_inclination": 0.0124,
        "meta_ra_of_asc_node": 358.5281,
        "meta_arg_of_pericenter": 263.2322,
        "meta_mean_anomaly": 193.4421,
        "meta_ephemeris_type": 0,
        "meta_classification_type": "U",
        "meta_norad_cat_id": 39122,
        "meta_element_set_no": 999,
        "meta_rev_at_epoch": 4654,
        "meta_bstar": 0,
        "meta_mean_motion_dot": -9e-08,
        "meta_mean_motion_ddot": 0,
        "tle_line1": "1 39122U 13012A   25344.36850492 -.00000009  00000+0  00000+0 0  9997",
        "tle_line2": "2 39122   0.0124 358.5281 0003028 263.2322 193.4421  1.00270995 46547"
      },
      "geometry": {
        "type": "Point",
        "coordinates": [
          -142.85797448842106,
          -0.021865739262620986
        ]
      }
    },
    {
      "type": "Feature",
      "properties": {
        "norad_id": 39163,
        "name": "EUTELSAT 7B",
        "group": "eutelsat",
        "lat": -0.04256609740633199,
        "lon": -19.01622191963782,
        "alt_km": 35768.604250302415,
        "timestamp": "2025-12-10T16:57:11.305982+00:00",
        "meta_object_name": "EUTELSAT 7B",
        "meta_object_id": "2013-022A",
        "meta_epoch": "2025-12-10T06:21:38.694816",
        "meta_mean_motion": 1.00272011,
        "meta_eccentricity": 0.0004588,
        "meta_inclination": 0.0716,
        "meta_ra_of_asc_node": 16.4121,
        "meta_arg_of_pericenter": 298.9676,
        "meta_mean_anomaly": 226.2631,
        "meta_ephemeris_type": 0,
        "meta_classification_type": "U",
        "meta_norad_cat_id": 39163,
        "meta_element_set_no": 999,
        "meta_rev_at_epoch": 4606,
        "meta_bstar": 0,
        "meta_mean_motion_dot": 5.1e-07,
        "meta_mean_motion_ddot": 0,
        "tle_line1": "1 39163U 13022A   25344.26503119  .00000051  00000+0  00000+0 0  9999",
        "tle_line2": "2 39163   0.0716  16.4121 0004588 298.9676 226.2631  1.00272011 46067"
      },
      "geometry": {
        "type": "Point",
        "coordinates": [
          -19.01622191963782,
          -0.04256609740633199
        ]
      }
    },
    {
      "type": "Feature",
      "properties": {
        "norad_id": 39612,
        "name": "EXPRESS-AT1",
        "group": "eutelsat",
        "lat": 0.022454855628428257,
        "lon": 29.96215495105728,
        "alt_km": 35788.78055315834,
        "timestamp": "2025-12-10T16:57:11.305995+00:00",
        "meta_object_name": "EXPRESS-AT1",
        "meta_object_id": "2014-010A",
        "meta_epoch": "2025-12-10T00:53:38.582304",
        "meta_mean_motion": 1.0027054,
        "meta_eccentricity": 5.761e-05,
        "meta_inclination": 0.0121,
        "meta_ra_of_asc_node": 290.9998,
        "meta_arg_of_pericenter": 272.8151,
        "meta_mean_anomaly": 304.608,
        "meta_ephemeris_type": 0,
        "meta_classification_type": "U",
        "meta_norad_cat_id": 39612,
        "meta_element_set_no": 999,
        "meta_rev_at_epoch": 4292,
        "meta_bstar": 0,
        "meta_mean_motion_dot": 8.2e-07,
        "meta_mean_motion_ddot": 0,
        "tle_line1": "1 39612U 14010A   25344.03725211  .00000082  00000+0  00000+0 0  9994",
        "tle_line2": "2 39612   0.0121 290.9998 0000576 272.8151 304.6080  1.00270540 42924"
      },
      "geometry": {
        "type": "Point",
        "coordinates": [
          29.96215495105728,
          0.022454855628428257
        ]
      }
    },
    {
      "type": "Feature",
      "properties": {
        "norad_id": 39613,
        "name": "EXPRESS-AT2",
        "group": "eutelsat",
        "lat": 0.025353557501799993,
        "lon": 113.83339337899803,
        "alt_km": 35793.13786128796,
        "timestamp": "2025-12-10T16:57:11.306008+00:00",
        "meta_object_name": "EXPRESS-AT2",
        "meta_object_id": "2014-010B",
        "meta_epoch": "2025-12-10T12:49:38.623584",
        "meta_mean_motion": 1.00269643,
        "meta_eccentricity": 0.0001525,
        "meta_inclination": 0.0161,
        "meta_ra_of_asc_node": 340.0718,
        "meta_arg_of_pericenter": 315.08,
        "meta_mean_anomaly": 116.6304,
        "meta_ephemeris_type": 0,
        "meta_classification_type": "U",
        "meta_norad_cat_id": 39613,
        "meta_element_set_no": 999,
        "meta_rev_at_epoch": 4260,
        "meta_bstar": 0,
        "meta_mean_motion_dot": 0,
        "meta_mean_motion_ddot": 0,
        "tle_line1": "1 39613U 14010B   25344.53447481  .00000000  00000+0  00000+0 0  9990",
        "tle_line2": "2 39613   0.0161 340.0718 0001525 315.0800 116.6304  1.00269643 42609"
      },
      "geometry": {
        "type": "Point",
        "coordinates": [
          113.83339337899803,
          0.025353557501799993
        ]
      }
    }
  ]
}